[{"OBJECT_NAME":"STARLINK-36447","OBJECT_ID":"2026-005X","EPOCH":"2026-03-09T12:50:28.129920","MEAN_MOTION":15.27590263,"ECCENTRICITY":0.0002124,"INCLINATION":43.0012,"RA_OF_ASC_NODE":238.7868,"ARG_OF_PERICENTER":286.3221,"MEAN_ANOMALY":73.7398,"EPHEMERIS_TYPE":0,"CLASSIFICATION_TYPE":"U","NORAD_CAT_ID":67425,"ELEMENT_SET_NO":999,"REV_AT_EPOCH":867,"BSTAR":0.0010776967,"MEAN_MOTION_DOT":0.00029523,"MEAN_MOTION_DDOT":0},{"OBJECT_NAME":"ALSAT-3B","OBJECT_ID":"2026-021A","EPOCH":"2026-03-09T21:47:36.363264","MEAN_MOTION":15.23965648,"ECCENTRICITY":0.00137736,"INCLINATION":97.4662,"RA_OF_ASC_NODE":143.2461,"ARG_OF_PERICENTER":131.2824,"MEAN_ANOMALY":228.9602,"EPHEMERIS_TYPE":0,"CLASSIFICATION_TYPE":"U","NORAD_CAT_ID":67646,"ELEMENT_SET_NO":999,"REV_AT_EPOCH":575,"BSTAR":0.00034138739,"MEAN_MOTION_DOT":8.212e-5,"MEAN_MOTION_DDOT":0}]
